NORAD_CAT_ID,OBJECT_NAME,OBJECT_TYPE,EPOCH,MEAN_MOTION,ECCENTRICITY,INCLINATION,RA_OF_ASC_NODE,ARG_OF_PERICENTER,MEAN_ANOMALY,BSTAR,MEAN_MOTION_DOT,MEAN_MOTION_DDOT,TLE_LINE0,TLE_LINE1,TLE_LINE2,SEMIMAJOR_AXIS,PERIOD,APOGEE,PERIGEE,DECAYED
53968.0,STARLINK-4629,PAYLOAD,2024-01-28 09:25:33,15.08832619,0.0001725,53.2169,86.5263,96.3744,263.7445,-6.2927e-05,-1.289e-05,0.0,0 STARLINK-4629,1 53968U 22125E   24028.39274686 -.00001289  00000-0 -62927-4 0  9996,2 53968  53.2169  86.5263 0001725  96.3744 263.7445 15.08832619 72886,6917.903,95.438,540.961,538.575,0.0
53968.0,STARLINK-4629,PAYLOAD,2024-01-29 10:51:42,15.0885209,0.0001504,53.2156,81.7678,82.2744,277.8419,0.00022255,3.257e-05,0.0,0 STARLINK-4629,1 53968U 22125E   24029.45258008  .00003257  00000-0  22255-3 0  9998,2 53968  53.2156  81.7678 0001504  82.2744 277.8419 15.08852090 73117,6917.843,95.437,540.749,538.668,0.0
53968.0,STARLINK-4629,PAYLOAD,2024-01-29 12:27:06,15.08852498,0.0001553,53.2158,81.4704,86.8793,273.2376,0.00029033,4.337e-05,0.0,0 STARLINK-4629,1 53968U 22125E   24029.51882014  .00004337  00000-0  29033-3 0  9996,2 53968  53.2158  81.4704 0001553  86.8793 273.2376 15.08852498 73051,6917.842,95.437,540.782,538.633,0.0
53968.0,STARLINK-4629,PAYLOAD,2024-01-30 10:42:30,15.08839634,0.0001917,53.2176,77.3076,87.7425,272.3786,0.00014735,2.058e-05,0.0,0 STARLINK-4629,1 53968U 22125E   24030.44618816  .00002058  00000-0  14735-3 0  9998,2 53968  53.2176  77.3076 0001917  87.7425 272.3786 15.08839634 73268,6917.882,95.438,541.073,538.42,0.0
53968.0,STARLINK-4629,PAYLOAD,2024-01-30 12:17:54,15.08823333,0.0001699,53.2181,77.0038,90.3485,269.7702,0.00075115,0.00011681,0.0,0 STARLINK-4629,1 53968U 22125E   24030.51243830  .00011681  00000-0  75115-3 0  9997,2 53968  53.2181  77.0038 0001699  90.3485 269.7702 15.08823333 73203,6917.931,95.439,540.972,538.621,0.0
53968.0,STARLINK-4629,PAYLOAD,2024-01-31 12:08:40,15.08843678,0.0001855,53.2174,72.542,81.295,278.8252,1.9346e-05,2e-07,0.0,0 STARLINK-4629,1 53968U 22125E   24031.50602667  .00000020  00000-0  19346-4 0  9994,2 53968  53.2174  72.5420 0001855  81.2950 278.8252 15.08843678 73429,6917.869,95.437,541.017,538.451,0.0
53968.0,STARLINK-4629,PAYLOAD,2024-02-01 11:59:28,15.08840242,0.0001846,53.2183,68.0831,82.7667,277.3535,7.3515e-05,8.82e-06,0.0,0 STARLINK-4629,1 53968U 22125E   24032.49962977  .00000882  00000-0  73515-4 0  9990,2 53968  53.2183  68.0831 0001846  82.7667 277.3535 15.08840242 73507,6917.88,95.438,541.022,538.468,0.0
53968.0,STARLINK-4629,PAYLOAD,2024-02-02 11:50:14,15.08843293,0.0001786,53.218,63.6249,104.6687,255.4503,7.0857e-05,8.4e-06,0.0,0 STARLINK-4629,1 53968U 22125E   24033.49322570  .00000840  00000-0  70857-4 0  9990,2 53968  53.2180  63.6249 0001786 104.6687 255.4503 15.08843293 73654,6917.87,95.437,540.971,538.5,0.0
53968.0,STARLINK-4629,PAYLOAD,2024-02-03 02:08:43,15.08836096,0.0001735,53.2179,60.9484,92.3179,267.8011,2.9866e-05,1.87e-06,0.0,0 STARLINK-4629,1 53968U 22125E   24034.08939264  .00000187  00000-0  29866-4 0  9998,2 53968  53.2179  60.9484 0001735  92.3179 267.8011 15.08836096 73818,6917.892,95.438,540.958,538.557,0.0
53968.0,STARLINK-4629,PAYLOAD,2024-02-03 11:41:02,15.08837043,0.0001738,53.2178,59.165,94.8796,265.2395,2.7e-05,1.42e-06,0.0,0 STARLINK-4629,1 53968U 22125E   24034.48683280  .00000142  00000-0  27000-4 0  9995,2 53968  53.2178  59.1650 0001738  94.8796 265.2395 15.08837043 73806,6917.889,95.438,540.957,538.552,0.0
53968.0,STARLINK-4629,PAYLOAD,2024-02-04 11:31:49,15.08842299,0.0001741,53.2177,54.7045,95.9626,264.1564,8.0955e-05,1.001e-05,0.0,0 STARLINK-4629,1 53968U 22125E   24035.48042907  .00001001  00000-0  80955-4 0  9994,2 53968  53.2177  54.7045 0001741  95.9626 264.1564 15.08842299 73953,6917.873,95.437,540.943,538.534,0.0
53968.0,STARLINK-4629,PAYLOAD,2024-02-05 00:14:54,15.08835196,0.0001736,53.2177,52.3261,94.7534,265.3656,6.6882e-05,7.76e-06,0.0,0 STARLINK-4629,1 53968U 22125E   24036.01035484  .00000776  00000-0  66882-4 0  9997,2 53968  53.2177  52.3261 0001736  94.7534 265.3656 15.08835196 74107,6917.895,95.438,540.961,538.559,0.0
53968.0,STARLINK-4629,PAYLOAD,2024-02-05 08:11:49,15.08843606,0.000153,53.2165,50.842,97.6936,262.423,0.00012712,1.736e-05,0.0,0 STARLINK-4629,1 53968U 22125E   24036.34154836  .00001736  00000-0  12712-3 0  9995,2 53968  53.2165  50.8420 0001530  97.6936 262.4230 15.08843606 74150,6917.869,95.437,540.793,538.676,0.0
53968.0,STARLINK-4629,PAYLOAD,2024-02-06 09:38:00,15.08842607,0.000156,53.2165,46.0877,108.7348,251.3813,2.2005e-05,6.2e-07,0.0,0 STARLINK-4629,1 53968U 22125E   24037.40139357  .00000062  00000-0  22005-4 0  9992,2 53968  53.2165  46.0877 0001560 108.7348 251.3813 15.08842607 74319,6917.872,95.437,540.817,538.658,0.0
53968.0,STARLINK-4629,PAYLOAD,2024-02-07 07:53:24,15.08846179,0.0001557,53.2173,41.9204,88.8062,271.3109,6.096e-05,6.82e-06,0.0,0 STARLINK-4629,1 53968U 22125E   24038.32875255  .00000682  00000-0  60960-4 0  9998,2 53968  53.2173  41.9204 0001557  88.8062 271.3109 15.08846179 74388,6917.862,95.437,540.804,538.649,0.0
53968.0,STARLINK-4629,PAYLOAD,2024-02-07 17:25:43,15.08844231,0.0001757,53.2182,40.1379,83.6087,276.5105,7.6496e-06,-1.66e-06,0.0,0 STARLINK-4629,1 53968U 22125E   24038.72619596 -.00000166  00000-0  76496-5 0  9996,2 53968  53.2182  40.1379 0001757  83.6087 276.5105 15.08844231 74519,6917.867,95.437,540.948,538.517,0.0
53968.0,STARLINK-4629,PAYLOAD,2024-02-08 06:08:48,15.08839642,0.0001554,53.2172,37.756,90.9225,269.1945,7.3313e-05,8.79e-06,0.0,0 STARLINK-4629,1 53968U 22125E   24039.25611839  .00000879  00000-0  73313-4 0  9991,2 53968  53.2172  37.7560 0001554  90.9225 269.1945 15.08839642 74523,6917.881,95.438,540.822,538.671,0.0
53968.0,STARLINK-4629,PAYLOAD,2024-02-09 04:24:12,15.08846947,0.0001509,53.2169,33.5938,86.811,273.3055,9.6897e-05,1.255e-05,0.0,0 STARLINK-4629,1 53968U 22125E   24040.18347410  .00001255  00000-0  96897-4 0  9997,2 53968  53.2169  33.5938 0001509  86.8110 273.3055 15.08846947 74737,6917.859,95.437,540.768,538.68,0.0
53968.0,STARLINK-4629,PAYLOAD,2024-02-09 09:10:21,15.08851589,0.0001502,53.2167,32.7002,99.6755,260.4407,0.00013931,1.931e-05,0.0,0 STARLINK-4629,1 53968U 22125E   24040.38218940  .00001931  00000-0  13931-3 0  9992,2 53968  53.2167  32.7002 0001502  99.6755 260.4407 15.08851589 74699,6917.845,95.437,540.749,538.671,0.0
53968.0,STARLINK-4629,PAYLOAD,2024-02-10 02:39:36,15.08839317,0.0001858,53.2162,29.4272,117.0793,243.0389,8.5407e-05,1.071e-05,0.0,0 STARLINK-4629,1 53968U 22125E   24041.11083865  .00001071  00000-0  85407-4 0  9993,2 53968  53.2162  29.4272 0001858 117.0793 243.0389 15.08839317 74878,6917.882,95.438,541.033,538.462,0.0
53968.0,STARLINK-4629,PAYLOAD,2024-02-10 09:01:08,15.08844737,0.0001547,53.2166,28.2399,95.3645,264.7523,0.00018034,2.584e-05,0.0,0 STARLINK-4629,1 53968U 22125E   24041.37579854  .00002584  00000-0  18034-3 0  9990,2 53968  53.2166  28.2399 0001547  95.3645 264.7523 15.08844737 74847,6917.866,95.437,540.801,538.661,0.0
53968.0,STARLINK-4629,PAYLOAD,2024-02-11 04:05:46,15.08845122,0.0001667,53.2171,24.6694,112.6577,247.4592,7.2926e-05,8.73e-06,0.0,0 STARLINK-4629,1 53968U 22125E   24042.17067791  .00000873  00000-0  72926-4 0  9991,2 53968  53.2171  24.6694 0001667 112.6577 247.4592 15.08845122 75036,6917.865,95.437,540.883,538.577,0.0
53968.0,STARLINK-4629,PAYLOAD,2024-02-12 03:56:33,15.08849838,0.0001485,53.2175,20.2094,96.2089,263.9072,0.00017903,2.563e-05,0.0,0 STARLINK-4629,1 53968U 22125E   24043.16427449  .00002563  00000-0  17903-3 0  9992,2 53968  53.2175  20.2094 0001485  96.2089 263.9072 15.08849838 75112,6917.85,95.437,540.743,538.688,0.0
53968.0,STARLINK-4629,PAYLOAD,2024-02-13 03:47:20,15.08839135,0.0001921,53.2193,15.7592,120.6315,239.4867,1.1384e-05,-1.07e-06,0.0,0 STARLINK-4629,1 53968U 22125E   24044.15787934 -.00000107  00000-0  11384-4 0  9991,2 53968  53.2193  15.7592 0001921 120.6315 239.4867 15.08839135 75336,6917.883,95.438,541.077,538.419,0.0
53968.0,STARLINK-4629,PAYLOAD,2024-02-13 08:33:30,15.0884045,0.0001517,53.2182,14.8599,94.1486,265.9679,4.7478e-05,4.68e-06,0.0,0 STARLINK-4629,1 53968U 22125E   24044.35660006  .00000468  00000-0  47478-4 0  9995,2 53968  53.2182  14.8599 0001517  94.1486 265.9679 15.08840450 75298,6917.879,95.438,540.793,538.695,0.0
53968.0,STARLINK-4629,PAYLOAD,2024-02-13 14:55:02,15.08846369,0.0001469,53.2186,13.6705,83.632,276.484,-0.00022849,-3.923e-05,0.0,0 STARLINK-4629,1 53968U 22125E   24044.62155341 -.00003923  00000-0 -22849-3 0  9991,2 53968  53.2186  13.6705 0001469  83.6320 276.4840 15.08846369 75331,6917.861,95.437,540.742,538.71,0.0
53968.0,STARLINK-4629,PAYLOAD,2024-02-14 05:13:31,15.08847019,0.0001737,53.2201,10.9949,94.9461,265.173,3.4588e-05,2.63e-06,0.0,0 STARLINK-4629,1 53968U 22125E   24045.21772022  .00000263  00000-0  34588-4 0  9994,2 53968  53.2201  10.9949 0001737  94.9461 265.1730 15.08847019 75491,6917.859,95.437,540.926,538.522,0.0
53968.0,STARLINK-4629,PAYLOAD,2024-02-14 14:45:50,15.08840164,0.0001458,53.2189,9.2107,88.066,272.05,0.00010473,1.379e-05,0.0,0 STARLINK-4629,1 53968U 22125E   24045.61516302  .00001379  00000-0  10473-3 0  9990,2 53968  53.2189   9.2107 0001458  88.0660 272.0500 15.08840164 75483,6917.88,95.438,540.754,538.736,0.0
53968.0,STARLINK-4629,PAYLOAD,2024-02-14 21:07:22,15.08837148,0.0001445,53.2176,8.0244,95.1596,264.9561,7.2197e-05,8.61e-06,0.0,0 STARLINK-4629,1 53968U 22125E   24045.88012645  .00000861  00000-0  72197-4 0  9997,2 53968  53.2176   8.0244 0001445  95.1596 264.9561 15.08837148 75521,6917.889,95.438,540.754,538.754,0.0
53968.0,STARLINK-4629,PAYLOAD,2024-02-15 03:28:55,15.0883374,0.0001205,53.2177,6.833,92.2675,267.8456,3.8025e-05,3.17e-06,0.0,0 STARLINK-4629,1 53968U 22125E   24046.14508965  .00000317  00000-0  38025-4 0  9990,2 53968  53.2177   6.8330 0001205  92.2675 267.8456 15.08833740 75635,6917.9,95.438,540.598,538.931,0.0
